IRIDIUM 136             
1 42962U 17061H   24068.31048420  .00000339  00000+0  11412-3 0  9996
2 42962  86.4021  12.4644 0001926  85.4500 274.6916 14.34222054335741
